[
    {
        "Altitude(m)": 557354.3624731288,
        "Argument of Periapsis(deg)": 0.013245982221427002,
        "Eccentricity": 0.0,
        "Inclination(deg)": 53.0,
        "Latitude(deg)": 41.92560919422009,
        "Longitude(deg)": -149.27519181465217,
        "Mean Anomaly(deg)": 56.54688573515516,
        "RAAN(deg)": 269.9802867370561,
        "Satellite Name": "Starlink Shell 1 1190",
        "Satellite Number": 1190,
        "Semi-Major Axis(m)": 6931778.249405717,
        "Time(s)": 380
    },
    {
        "Altitude(m)": 557435.2488907916,
        "Argument of Periapsis(deg)": 0.013594560700938237,
        "Eccentricity": 0.0,
        "Inclination(deg)": 53.0,
        "Latitude(deg)": 42.2947109480284,
        "Longitude(deg)": -148.63418779053166,
        "Mean Anomaly(deg)": 57.1737169387119,
        "RAAN(deg)": 269.97976796697856,
        "Satellite Name": "Starlink Shell 1 1190",
        "Satellite Number": 1190,
        "Semi-Major Axis(m)": 6931778.249405717,
        "Time(s)": 390
    },
    {
        "Altitude(m)": 557515.5834032432,
        "Argument of Periapsis(deg)": 0.013943139180449475,
        "Eccentricity": 0.0,
        "Inclination(deg)": 53.0,
        "Latitude(deg)": 42.65968279221768,
        "Longitude(deg)": -147.98522218072537,
        "Mean Anomaly(deg)": 57.800548142268596,
        "RAAN(deg)": 269.97924919690104,
        "Satellite Name": "Starlink Shell 1 1190",
        "Satellite Number": 1190,
        "Semi-Major Axis(m)": 6931778.249405717,
        "Time(s)": 400
    },
    {
        "Altitude(m)": 557595.3149498714,
        "Argument of Periapsis(deg)": 0.014291717659960712,
        "Eccentricity": 0.0,
        "Inclination(deg)": 53.0,
        "Latitude(deg)": 43.02042427854026,
        "Longitude(deg)": -147.32819053387908,
        "Mean Anomaly(deg)": 58.427379345825344,
        "RAAN(deg)": 269.97873042682363,
        "Satellite Name": "Starlink Shell 1 1190",
        "Satellite Number": 1190,
        "Semi-Major Axis(m)": 6931778.249405717,
        "Time(s)": 410
    },
    {
        "Altitude(m)": 557674.392985869,
        "Argument of Periapsis(deg)": 0.014640296139471948,
        "Eccentricity": 0.0,
        "Inclination(deg)": 53.0,
        "Latitude(deg)": 43.37683312529858,
        "Longitude(deg)": -146.66299215122234,
        "Mean Anomaly(deg)": 59.05421054938204,
        "RAAN(deg)": 269.97821165674617,
        "Satellite Name": "Starlink Shell 1 1190",
        "Satellite Number": 1190,
        "Semi-Major Axis(m)": 6931778.249405717,
        "Time(s)": 420
    },
    {
        "Altitude(m)": 557752.7675076242,
        "Argument of Periapsis(deg)": 0.014988874618983185,
        "Eccentricity": 0.0,
        "Inclination(deg)": 53.0,
        "Latitude(deg)": 43.72880523702306,
        "Longitude(deg)": -145.98952995628775,
        "Mean Anomaly(deg)": 59.68104175293874,
        "RAAN(deg)": 269.97769288666865,
        "Satellite Name": "Starlink Shell 1 1190",
        "Satellite Number": 1190,
        "Semi-Major Axis(m)": 6931778.249405717,
        "Time(s)": 430
    },
    {
        "Altitude(m)": 557830.3890778499,
        "Argument of Periapsis(deg)": 0.015337453098494424,
        "Eccentricity": 0.0,
        "Inclination(deg)": 53.0,
        "Latitude(deg)": 44.07623473002471,
        "Longitude(deg)": -145.30771038332247,
        "Mean Anomaly(deg)": 60.30787295649548,
        "RAAN(deg)": 269.97717411659124,
        "Satellite Name": "Starlink Shell 1 1190",
        "Satellite Number": 1190,
        "Semi-Major Axis(m)": 6931778.249405717,
        "Time(s)": 440
    },
    {
        "Altitude(m)": 557907.2088503258,
        "Argument of Periapsis(deg)": 0.01568603157800566,
        "Eccentricity": 0.0,
        "Inclination(deg)": 53.0,
        "Latitude(deg)": 44.41901396423882,
        "Longitude(deg)": -144.6174447971552,
        "Mean Anomaly(deg)": 60.93470416005218,
        "RAAN(deg)": 269.9766553465137,
        "Satellite Name": "Starlink Shell 1 1190",
        "Satellite Number": 1190,
        "Semi-Major Axis(m)": 6931778.249405717,
        "Time(s)": 450
    },
    {
        "Altitude(m)": 557983.1785944186,
        "Argument of Periapsis(deg)": 0.0160346100575169,
        "Eccentricity": 0.0,
        "Inclination(deg)": 53.0,
        "Latitude(deg)": 44.75703358177539,
        "Longitude(deg)": -143.91864941852475,
        "Mean Anomaly(deg)": 61.561535363608925,
        "RAAN(deg)": 269.97613657643626,
        "Satellite Name": "Starlink Shell 1 1190",
        "Satellite Number": 1190,
        "Semi-Major Axis(m)": 6931778.249405717,
        "Time(s)": 460
    },
    {
        "Altitude(m)": 558058.2507191553,
        "Argument of Periapsis(deg)": 0.016383188537028134,
        "Eccentricity": 0.0,
        "Inclination(deg)": 53.0,
        "Latitude(deg)": 45.090182552605356,
        "Longitude(deg)": -143.21124526733917,
        "Mean Anomaly(deg)": 62.18836656716562,
        "RAAN(deg)": 269.9756178063588,
        "Satellite Name": "Starlink Shell 1 1190",
        "Satellite Number": 1190,
        "Semi-Major Axis(m)": 6931778.249405717,
        "Time(s)": 470
    },
    {
        "Altitude(m)": 558132.3782970395,
        "Argument of Periapsis(deg)": 0.01673176701653937,
        "Eccentricity": 0.0,
        "Inclination(deg)": 53.0,
        "Latitude(deg)": 45.418348227812096,
        "Longitude(deg)": -142.4951596361629,
        "Mean Anomaly(deg)": 62.81519777072232,
        "RAAN(deg)": 269.9750990362813,
        "Satellite Name": "Starlink Shell 1 1190",
        "Satellite Number": 1190,
        "Semi-Major Axis(m)": 6931778.249405717,
        "Time(s)": 480
    },
    {
        "Altitude(m)": 558205.5150874641,
        "Argument of Periapsis(deg)": 0.017080345496050607,
        "Eccentricity": 0.0,
        "Inclination(deg)": 53.0,
        "Latitude(deg)": 45.741416400831454,
        "Longitude(deg)": -141.77032606742355,
        "Mean Anomaly(deg)": 63.44202897427906,
        "RAAN(deg)": 269.9745802662038,
        "Satellite Name": "Starlink Shell 1 1190",
        "Satellite Number": 1190,
        "Semi-Major Axis(m)": 6931778.249405717,
        "Time(s)": 490
    },
    {
        "Altitude(m)": 558277.6155597644,
        "Argument of Periapsis(deg)": 0.017428923975561842,
        "Eccentricity": 0.0,
        "Inclination(deg)": 53.0,
        "Latitude(deg)": 46.05927137710325,
        "Longitude(deg)": -141.03668434624765,
        "Mean Anomaly(deg)": 64.06886017783576,
        "RAAN(deg)": 269.97406149612635,
        "Satellite Name": "Starlink Shell 1 1190",
        "Satellite Number": 1190,
        "Semi-Major Axis(m)": 6931778.249405717,
        "Time(s)": 500
    },
    {
        "Altitude(m)": 558348.6349159016,
        "Argument of Periapsis(deg)": 0.01777750245507308,
        "Eccentricity": 0.0,
        "Inclination(deg)": 53.0,
        "Latitude(deg)": 46.37179605255149,
        "Longitude(deg)": -140.29418202060708,
        "Mean Anomaly(deg)": 64.6956913813925,
        "RAAN(deg)": 269.9735427260489,
        "Satellite Name": "Starlink Shell 1 1190",
        "Satellite Number": 1190,
        "Semi-Major Axis(m)": 6931778.249405717,
        "Time(s)": 510
    },
    {
        "Altitude(m)": 558418.5291127505,
        "Argument of Periapsis(deg)": 0.018126080934584315,
        "Eccentricity": 0.0,
        "Inclination(deg)": 53.0,
        "Latitude(deg)": 46.678872001286834,
        "Longitude(deg)": -139.54277442161344,
        "Mean Anomaly(deg)": 65.32252258494916,
        "RAAN(deg)": 269.97302395597137,
        "Satellite Name": "Starlink Shell 1 1190",
        "Satellite Number": 1190,
        "Semi-Major Axis(m)": 6931778.249405717,
        "Time(s)": 520
    },
    {
        "Altitude(m)": 558487.2548839989,
        "Argument of Periapsis(deg)": 0.018474659414095554,
        "Eccentricity": 0.0,
        "Inclination(deg)": 53.0,
        "Latitude(deg)": 46.980379572915616,
        "Longitude(deg)": -138.782424695158,
        "Mean Anomaly(deg)": 65.94935378850589,
        "RAAN(deg)": 269.97250518589397,
        "Satellite Name": "Starlink Shell 1 1190",
        "Satellite Number": 1190,
        "Semi-Major Axis(m)": 6931778.249405717,
        "Time(s)": 530
    },
    {
        "Altitude(m)": 558554.7697616243,
        "Argument of Periapsis(deg)": 0.018823237893606792,
        "Eccentricity": 0.0,
        "Inclination(deg)": 53.0,
        "Latitude(deg)": 47.276197999814734,
        "Longitude(deg)": -138.01310535583454,
        "Mean Anomaly(deg)": 66.57618499206264,
        "RAAN(deg)": 269.9719864158165,
        "Satellite Name": "Starlink Shell 1 1190",
        "Satellite Number": 1190,
        "Semi-Major Axis(m)": 6931778.249405717,
        "Time(s)": 540
    },
    {
        "Altitude(m)": 558621.032096971,
        "Argument of Periapsis(deg)": 0.019171816373118027,
        "Eccentricity": 0.0,
        "Inclination(deg)": 53.0,
        "Latitude(deg)": 47.56620551469518,
        "Longitude(deg)": -137.23479833518743,
        "Mean Anomaly(deg)": 67.20301619561934,
        "RAAN(deg)": 269.971467645739,
        "Satellite Name": "Starlink Shell 1 1190",
        "Satellite Number": 1190,
        "Semi-Major Axis(m)": 6931778.249405717,
        "Time(s)": 550
    },
    {
        "Altitude(m)": 558686.0010813867,
        "Argument of Periapsis(deg)": 0.019520394852629266,
        "Eccentricity": 0.0,
        "Inclination(deg)": 53.0,
        "Latitude(deg)": 47.850279478748725,
        "Longitude(deg)": -136.44749503466008,
        "Mean Anomaly(deg)": 67.82984739917609,
        "RAAN(deg)": 269.9709488756615,
        "Satellite Name": "Starlink Shell 1 1190",
        "Satellite Number": 1190,
        "Semi-Major Axis(m)": 6931778.249405717,
        "Time(s)": 560
    }
]